OBJECT_NAME,OBJECT_ID,EPOCH,MEAN_MOTION,ECCENTRICITY,INCLINATION,RA_OF_ASC_NODE,ARG_OF_PERICENTER,MEAN_ANOMALY,EPHEMERIS_TYPE,CLASSIFICATION_TYPE,NORAD_CAT_ID,ELEMENT_SET_NO,REV_AT_EPOCH,BSTAR,MEAN_MOTION_DOT,MEAN_MOTION_DDOT
SAUDISAT 5A,2018-102A,2026-07-13T11:42:05.036256,15.28310147,.0010583,97.3056,255.5636,49.2418,310.9739,0,U,43831,999,41969,.1175E-3,.3171E-4,0
SAUDISAT 5B,2018-102C,2026-07-13T12:03:01.452960,15.28553768,.0011351,97.3166,258.6952,50.6280,309.5964,0,U,43833,999,41981,.10773E-3,.2923E-4,0
GAOFEN-10R,2019-066A,2026-07-13T12:49:48.372960,14.83055063,.0006944,98.0514,148.3071,57.3505,302.8377,0,U,44622,999,36628,.76131E-4,.565E-5,0
CARTOSAT-3,2019-081A,2026-07-13T12:03:42.182784,15.19319622,.0013226,97.4300,255.9444,66.3327,293.9294,0,U,44804,999,36746,.16788E-3,.3484E-4,0
GAOFEN-12 01,2019-082A,2026-07-13T12:09:13.046400,14.80478838,.0001057,97.8108,200.1920,53.5234,306.6076,0,U,44819,999,35798,.30758E-4,.185E-5,0
CSG-1,2019-092A,2026-07-13T12:22:19.142112,14.82155998,.0001489,97.8893,17.7375,90.0330,270.1054,0,U,44873,999,35537,.29774E-4,.185E-5,0
NEMO-HD,2020-061F,2026-07-13T13:22:28.388928,15.45115765,.0000975,97.1911,256.2506,91.9153,268.2208,0,U,46277,999,32605,.14458E-3,.6755E-4,0
SENTINEL-6A,2020-086A,2026-07-12T22:17:12.577920,12.80930069,.0007812,66.0413,81.5884,269.9474,90.0646,0,U,46984,999,26362,.8170496E-5,-.59E-6,0
CAS500-1,2021-022A,2026-07-13T12:35:17.704608,15.20171148,.0005035,97.3874,89.2410,173.8422,186.2876,0,U,47932,999,29476,.16936E-3,.3599E-4,0
GAOFEN-12 02,2021-026A,2026-07-13T12:29:13.420608,14.80315252,.0005726,97.9933,192.5947,136.6002,223.5661,0,U,48079,999,28565,.26864E-4,.152E-5,0
PLEIADES NEO 3,2021-034A,2026-07-13T15:47:59.465760,14.81670638,.0001416,97.8952,269.0448,167.3074,192.8174,0,U,48268,999,28157,.72481E-4,.518E-5,0
PLEIADES NEO 4,2021-073E,2026-07-12T21:09:39.652416,14.81673277,.00013159,97.8940,268.2748,92.3250,267.8113,0,U,49070,999,26517,.5610748E-5,-.8E-7,0
LANDSAT 9,2021-088A,2026-07-13T05:20:16.695744,14.57094678,.0001146,98.2271,264.0833,89.2906,270.8424,0,U,49260,999,25479,.43303E-4,.15E-5,0
CSG-2,2022-008A,2026-07-13T11:33:39.559968,14.82151430,.0001557,97.8889,17.6988,87.2536,272.8855,0,U,51444,999,24048,.88032E-4,.649E-5,0
GAOFEN-12 03,2022-069A,2026-07-13T11:41:27.508416,14.80072418,.0002491,97.8255,81.6911,73.9690,286.1797,0,U,52912,999,21850,-.40367E-6,-.54E-6,0
SWOT,2022-173A,2026-07-13T11:56:47.213088,14.00172316,.0000286,77.6108,359.7895,78.9791,281.1392,0,U,54754,999,18283,.52422E-4,.75E-6,0
GAOFEN-12 04,2023-123A,2026-07-13T12:09:19.810656,14.79773467,.0003599,97.9103,112.1315,53.9784,306.1760,0,U,57654,999,15652,.70047E-4,.475E-5,0
PARS 1,2024-039Q,2026-07-13T12:40:38.182944,15.46266233,.0009976,97.4832,176.2901,32.3052,327.8806,0,U,59065,999,13271,.14527E-3,.7068E-4,0
RESURS-P 4,2024-061A,2026-07-13T12:24:17.670816,15.32273939,.0003226,97.2759,141.9608,91.9310,268.2301,0,U,59371,999,12779,.57773E-4,.1724E-4,0
LEGION 1,2024-081A,2026-07-13T11:36:49.500000,15.16837370,.0007683,97.5014,272.0618,276.5773,83.4585,0,U,59625,999,12152,.11043E-3,.2105E-4,0
LEGION 2,2024-081B,2026-07-13T12:20:32.686080,15.16816079,.0010108,97.5016,272.1887,239.8849,120.1383,0,U,59626,999,12153,.10493E-3,.1997E-4,0
ALOS-4 (DAICHI-4),2024-123A,2026-07-13T14:28:16.652928,14.79467541,.0001565,97.9222,291.3997,98.9597,261.1792,0,U,60182,999,10978,.55792E-4,.365E-5,0
LEGION 3,2024-146A,2026-07-13T11:47:09.019104,15.15649490,.0008356,45.0021,249.5230,324.9561,35.0766,0,U,60452,999,10601,.10584E-3,.1784E-4,0
LEGION 4,2024-146B,2026-07-13T11:46:49.855584,15.15673613,.0008926,45.0030,341.3908,103.0614,257.1261,0,U,60453,999,10486,.12903E-3,.2234E-4,0
SENTINEL-2C,2024-157A,2026-07-13T04:28:37.162272,14.30815320,.0000944,98.5685,268.5997,101.9124,258.2165,0,U,60989,999,9670,.31702E-4,.39E-6,0
IONOSFERA-M 1,2024-199A,2026-07-13T11:53:43.757376,14.22758894,.0002181,98.7137,67.3859,75.0795,285.0624,0,U,61735,999,13144,.32685E-4,.29E-6,0
IONOSFERA-M 2,2024-199B,2026-07-13T11:01:45.315264,14.22762259,.0000433,98.7136,67.2606,118.9294,241.1928,0,U,61736,999,13456,.3142E-4,.26E-6,0
PRSC-EO1,2025-012A,2026-07-13T11:58:08.082624,15.17607262,.0006632,97.4221,266.4427,151.3512,208.8087,0,U,62725,999,8218,.18736E-3,.3702E-4,0
BIOMASS,2025-090A,2026-07-13T11:46:56.100576,14.67536921,.0001436,98.0750,21.4211,96.7848,263.3520,0,U,63772,999,6454,.10321E-3,.537E-5,0
GOSAT-GW (IBUKI GW),2025-141A,2026-07-13T12:11:47.806080,14.67555955,.0001432,98.0565,131.3977,85.1143,275.0225,0,U,64694,999,5570,.73769E-4,.371E-5,0
IONOSFERA-M 3,2025-155A,2026-07-13T12:01:07.531104,14.21490662,.000224,98.6039,155.7455,114.9715,245.1696,0,U,64876,999,5014,.23054E-4,.8E-7,0
