SAUDISAT 5A             
1 43831U 18102A   26194.48755829  .00003171  00000+0  11750-3 0  9999
2 43831  97.3056 255.5636 0010583  49.2418 310.9739 15.28310147419691
SAUDISAT 5B             
1 43833U 18102C   26194.50210015  .00002923  00000+0  10773-3 0  9995
2 43833  97.3166 258.6952 0011351  50.6280 309.5964 15.28553768419813
GAOFEN-10R              
1 44622U 19066A   26194.53458765  .00000565  00000+0  76131-4 0  9992
2 44622  98.0514 148.3071 0006944  57.3505 302.8377 14.83055063366289
CARTOSAT-3              
1 44804U 19081A   26194.50257156  .00003484  00000+0  16788-3 0  9993
2 44804  97.4300 255.9444 0013226  66.3327 293.9294 15.19319622367462
GAOFEN-12 01            
1 44819U 19082A   26194.50640100  .00000185  00000+0  30758-4 0  9994
2 44819  97.8108 200.1920 0001057  53.5234 306.6076 14.80478838357981
CSG-1                   
1 44873U 19092A   26194.51549933  .00000185  00000+0  29774-4 0  9994
2 44873  97.8893  17.7375 0001489  90.0330 270.1054 14.82155998355373
NEMO-HD                 
1 46277U 20061F   26194.55727302  .00006755  00000+0  14458-3 0  9995
2 46277  97.1911 256.2506 0000975  91.9153 268.2208 15.45115765326055
SENTINEL-6A             
1 46984U 20086A   26193.92861780 -.00000059  00000+0  81705-5 0  9999
2 46984  66.0413  81.5884 0007812 269.9474  90.0646 12.80930069263628
CAS500-1                
1 47932U 21022A   26194.52451047  .00003599  00000+0  16936-3 0  9995
2 47932  97.3874  89.2410 0005035 173.8422 186.2876 15.20171148294765
GAOFEN-12 02            
1 48079U 21026A   26194.52029422  .00000152  00000+0  26864-4 0  9994
2 48079  97.9933 192.5947 0005726 136.6002 223.5661 14.80315252285657
PLEIADES NEO 3          
1 48268U 21034A   26194.65832715  .00000518  00000+0  72481-4 0  9996
2 48268  97.8952 269.0448 0001416 167.3074 192.8174 14.81670638281572
PLEIADES NEO 4          
1 49070U 21073E   26193.88170894 -.00000008  00000+0  56107-5 0  9991
2 49070  97.8940 268.2748 0001315  92.3250 267.8113 14.81673277265172
LANDSAT 9               
1 49260U 21088A   26194.22241546  .00000150  00000+0  43303-4 0  9990
2 49260  98.2271 264.0833 0001146  89.2906 270.8424 14.57094678254799
CSG-2                   
1 51444U 22008A   26194.48170787  .00000649  00000+0  88032-4 0  9997
2 51444  97.8889  17.6988 0001557  87.2536 272.8855 14.82151430240481
GAOFEN-12 03            
1 52912U 22069A   26194.48712394 -.00000054  00000+0 -40367-6 0  9994
2 52912  97.8255  81.6911 0002491  73.9690 286.1797 14.80072418218504
SWOT                    
1 54754U 22173A   26194.49776867  .00000075  00000+0  52422-4 0  9996
2 54754  77.6108 359.7895 0000286  78.9791 281.1392 14.00172316182832
GAOFEN-12 04            
1 57654U 23123A   26194.50647929  .00000475  00000+0  70047-4 0  9999
2 57654  97.9103 112.1315 0003599  53.9784 306.1760 14.79773467156521
PARS 1                  
1 59065U 24039Q   26194.52821971  .00007068  00000+0  14527-3 0  9992
2 59065  97.4832 176.2901 0009976  32.3052 327.8806 15.46266233132718
RESURS-P 4              
1 59371U 24061A   26194.51687119  .00001724  00000+0  57773-4 0  9994
2 59371  97.2759 141.9608 0003226  91.9310 268.2301 15.32273939127793
LEGION 1                
1 59625U 24081A   26194.48390625  .00002105  00000+0  11043-3 0  9990
2 59625  97.5014 272.0618 0007683 276.5773  83.4585 15.16837370121527
LEGION 2                
1 59626U 24081B   26194.51426720  .00001997  00000+0  10493-3 0  9997
2 59626  97.5016 272.1887 0010108 239.8849 120.1383 15.16816079121530
ALOS-4 (DAICHI-4)       
1 60182U 24123A   26194.60297052  .00000365  00000+0  55792-4 0  9997
2 60182  97.9222 291.3997 0001565  98.9597 261.1792 14.79467541109785
LEGION 3                
1 60452U 24146A   26194.49107661  .00001784  00000+0  10584-3 0  9990
2 60452  45.0021 249.5230 0008356 324.9561  35.0766 15.15649490106017
LEGION 4                
1 60453U 24146B   26194.49085481  .00002234  00000+0  12903-3 0  9994
2 60453  45.0030 341.3908 0008926 103.0614 257.1261 15.15673613104861
SENTINEL-2C             
1 60989U 24157A   26194.18654123  .00000039  00000+0  31702-4 0  9991
2 60989  98.5685 268.5997 0000944 101.9124 258.2165 14.30815320 96704
IONOSFERA-M 1           
1 61735U 24199A   26194.49564534  .00000029  00000+0  32685-4 0  9997
2 61735  98.7137  67.3859 0002181  75.0795 285.0624 14.22758894131442
IONOSFERA-M 2           
1 61736U 24199B   26194.45955226  .00000026  00000+0  31420-4 0  9999
2 61736  98.7136  67.2606 0000433 118.9294 241.1928 14.22762259134566
PRSC-EO1                
1 62725U 25012A   26194.49870466  .00003702  00000+0  18736-3 0  9997
2 62725  97.4221 266.4427 0006632 151.3512 208.8087 15.17607262 82184
BIOMASS                 
1 63772U 25090A   26194.49092709  .00000537  00000+0  10321-3 0  9997
2 63772  98.0750  21.4211 0001436  96.7848 263.3520 14.67536921 64547
GOSAT-GW (IBUKI GW)     
1 64694U 25141A   26194.50819220  .00000371  00000+0  73769-4 0  9997
2 64694  98.0565 131.3977 0001432  85.1143 275.0225 14.67555955 55709
IONOSFERA-M 3           
1 64876U 25155A   26194.50078161  .00000008  00000+0  23054-4 0  9994
2 64876  98.6039 155.7455 0002240 114.9715 245.1696 14.21490662 50144
